0 TRANSIT 5E-5 DEB
1 38525U 64083P   13282.13626925  .00018386  00000-0  10958-1 0  3954
2 38525 089.8653 162.9224 0171049 042.5679 114.6322 14.00166241534988
0 TRANSIT 5E-5 DEB
1 38525U 64083P   13284.13637725  .00015646  00000-0  93156-2 0  3965
2 38525 089.8663 162.8931 0171225 036.4457 116.4138 14.00222539535254
0 TRANSIT 5E-5 DEB
1 38525U 64083P   13287.13908642  .00013150  00000-0  78090-2 0  3987
2 38525 089.8666 162.8474 0172191 027.6081 132.2503 14.00296426535682
0 TRANSIT 5E-5 DEB
1 38525U 64083P   13288.13856580  .00020862  00000-0  12373-1 0  3991
2 38525 089.8700 162.8339 0172105 024.5589 130.6534 14.00331754535821
0 TRANSIT 5E-5 DEB
1 38525U 64083P   13289.13818013  .00017916  00000-0  10622-1 0  4005
2 38525 089.8708 162.8198 0172122 021.5620 129.8209 14.00367159535955
0 TRANSIT 5E-5 DEB
1 38525U 64083P   13290.97854407  .00016287  00000-0  96245-2 0  4013
2 38525 089.8678 162.8015 0173679 016.4208 047.2288 14.00426598536215
0 TRANSIT 5E-5 DEB
1 38525U 64083P   13292.61363006  .00015250  00000-0  90057-2 0  4021
2 38525 089.8666 162.7771 0173659 011.5001 010.4631 14.00468816536443
0 TRANSIT 5E-5 DEB
1 38525U 64083P   13293.62151133  .00016951  00000-0  10014-1 0  4033
2 38525 089.8658 162.7654 0172865 007.9516 052.3337 14.00503837536588
0 TRANSIT 5E-5 DEB
1 38525U 64083P   13295.90743177  .00019870  00000-0  11721-1 0  4041
2 38525 089.8757 162.7271 0172691 001.7347 056.8982 14.00581011536905
